#dP2022  5 29  6  0  0.00000000      96 __u+U ITR00 EXT  IAC
## 2212  21600.00000000   900.00000000 59728 0.2500000000000
+  117   C06C07C08C09C10C11C12C13C14C16C19C20C21C22C23C24C25
+        C26C27C28C29C30C32C33C34C35C36C37C38C39C40C41C42C43
+        C44C45C46E01E02E03E04E05E07E08E09E10E11E12E13E14E15
+        E18E19E21E24E25E26E27E30E31E33E34E36G01G02G03G04G05
+        G06G07G08G09G10G11G12G13G14G15G16G17G18G19G20G21G22
+        G23G24G25G26G27G28G29G30G31G32J02J03R01R02R03R04R05
+        R07R08R09R11R12R13R14R15R17R18R19R20R21R22R24  0  0
++         9 10 12 10 10 10  9 13  9  9  9  8  9  9  9 10  7
++        10  9  8  9  9  8 10  8  9 10  9  9 11  8  8  8  9
++         9  9  9  9  8  8  8  8  8  7  9  8  9  8  7  8  8
++         8  8  8  8  8  8  8  8  8  8  8  8  8  8  8  8  9
++         8  9  7  7  8  7 10  8 10  9  8  8  9  8  8  8  8
++         8  8  8  9  7 10  8  7  8  8  8  9  9  8  9  9  9
++         8  9  9  8  9  9  9 10  9  9  8 10  7  8  8  0  0
%c M  cc GPS ccc cccc cccc cccc cccc ccccc ccccc ccccc ccccc
%c cc cc ccc ccc cccc cccc cccc cccc ccccc ccccc ccccc ccccc
%f  0.0000000  0.000000000  0.00000000000  0.000000000000000
%f  0.0000000  0.000000000  0.00000000000  0.000000000000000
%i    0    0    0    0      0      0      0      0         0
%i    0    0    0    0      0      0      0      0         0
/* IAC                                ULTRA-RAPID PREDICTION
/* S/V CLOCKS ARE ALIGNED TO GNSS TIME                      
/* G:C1WC2W R:C1PC2P E:C1XC5X C:C2IC6I J:C1CC2S             
/* PCV:IGS14_2196 OL/AL:FES2004  NONE     YN ORB:CoN CLK:CoN
*  2022 05 30  0 30  0.00000000
PC06 -10031.821487  40769.872797  -2386.012380     84.507335
PC07  -3623.311640  28652.789016  30768.222406   -231.296966
PC08 -18496.319128  24527.439585 -28955.176300    337.815226
PC09  -5829.725765  41103.049192   5954.328112   -834.304005
PC10   5170.992686  31600.984561  27911.484512    129.543944
PC11 -14976.209614  -3496.025063  23341.744667    382.791920
PC12  -7479.664085 -21555.971501  16086.147409   -607.974186
PC13 -10760.840944  25576.562060 -31706.564379    -18.585085
PC14 -24095.132174  -9307.886170 -10455.849413    487.362242
PC16 -11841.816719  39878.413187  -5803.698888    135.798598
PC19  21446.973788    933.306904  17873.545632    864.659593
PC20  23297.437387  15074.566946   3155.688377   -935.964694
PC21 -11138.637764 -21086.375902  14489.785533   -385.255214
PC22   7153.005417 -14318.899487  22861.920631   -967.000203
PC23 -17985.624183  17176.154774  12664.722341   -931.232186
PC24 -18991.395750  -7124.743237 -19180.617516   -971.299374
PC25 -26304.010657   8543.409391  -3805.364298   -729.419733
PC26  -2346.356422 -16485.864636 -22399.328068    730.802171
PC27   2091.663592  26479.602947  -8555.730716    730.942042
PC28  -9691.266536  24695.407105   8661.259580     72.545548
PC29  15831.710607  -8536.234103 -21348.173053    561.392368
PC30  13070.420686  13301.668153 -20763.900109    499.197523
PC32  11317.759691  21004.705235 -14467.220258   -965.123040
PC33 -21472.750706   -861.194156 -17780.525123   -966.923521
PC34 -13456.688574 -12303.804663  21115.906804   -392.414123
PC35   9436.381852 -24469.147114  -9600.965412    296.903318
PC36  26520.383155  -7539.239221   4335.727343   -965.617125
PC37    606.199511  16935.751812  22190.581417   -908.497934
PC38 -24695.667490  25823.640523 -22477.555260    235.663059
PC39 -13268.174394  37992.514787 -12268.055814     34.982024
PC40  -7443.794875  23036.098610  34533.339462    273.169647
PC41  -7538.006059  14063.969493 -22839.229982   -967.391220
PC42 -22961.535264 -15696.540502  -2042.036900   -966.424492
PC43 -16030.856282   7659.682289  21500.166851   -921.199422
PC44  -2904.478628 -26504.047352   8279.195550    675.684309
PC45  17755.039439 -17188.423924 -12942.541710    769.998041
PC46  20087.382696   5939.846109  18426.718891   -351.276867
PE01 -29169.451147  -4819.303879  -1471.472042   -486.166546
PE02  29187.982022   4705.241494   1302.549305    302.359609
PE03  19422.834408   8507.640732  20664.026011   -563.434727
PE04 -12732.136510  12605.221760 -23549.588717  -1038.771838
PE05  14810.027575  25023.838611   5558.834070   -176.979802
PE07  -1636.449390 -26744.668997  12577.273433   -673.424990
PE08  12432.325311 -12826.991309  23607.474091   -537.659005
PE09   1892.709378  26757.709578 -12523.577024   -535.513894
PE10 -16572.609981  24443.748822  -2021.043597   -516.272853
PE11  -9379.744313  25402.615361 -11948.105860   3517.221305
PE12 -20874.896005  19529.888000   7630.294714   4588.930823
PE13   9929.882387 -25488.183973  11321.163643    428.987118
PE14  21326.599820  10017.203830 -22358.316627  -1823.013902
PE15  20859.009856 -19507.199945  -7799.881211    742.605481
PE18 -15476.795354  -1908.811734  17749.973950  -1390.402501
PE19 -19356.826502 -11154.394677 -19404.996917  -5503.654862
PE21 -19038.948150 -14418.668432 -17488.401134   -737.114003
PE24  -4106.183206  16256.225333  24381.561061   -642.286243
PE25  18788.631412  14517.381063  17679.369641   -575.727905
PE26  -7615.438578 -15823.316663  23826.130753  -1202.505854
PE27   2647.769100 -16437.748917 -24471.277463   -310.211042
PE30  23326.036835  -8153.536969 -16298.254194   -550.708216
PE31 -22589.842931   8773.621060  17003.597056   -497.432788
PE33 -19429.849755   2042.127851  22230.472694   -456.148161
PE34  19514.358431  -2273.737261 -22150.588092   -519.559564
PE36   6761.665728  16451.635473 -23661.092364   -380.741247
PG01 -12128.454747  21462.946244  -9699.367475    352.221771
PG02  20216.613788 -13291.249769 -10475.024309   -653.064729
PG03  -5573.648047  14003.299239 -21973.866830   -261.645569
PG04  -2679.615280  23478.113265 -12026.938187   -162.406978
PG05  20373.580333  -6952.655551  15489.271502    -83.652510
PG06  16882.595729   1892.725124 -20378.743626    322.831214
PG07   2782.607619  17605.689214  19941.572585    322.184743
PG08  -8019.928237  17159.619144  18431.799076    -70.015627
PG09   6158.356201  25698.345390  -2554.476684   -332.784203
PG10 -22245.271275 -11741.687419   9124.124825   -434.111342
PG11  21965.000307 -10214.234203 -10873.623769    -19.432791
PG12  10775.139587 -11949.571999 -21382.826290   -223.141586
PG13  13567.630137  -7958.239464  21223.097730    320.543136
PG14  20931.410285  13188.829847   9787.573042   -110.201716
PG15   5880.530615 -18757.895437  17306.484653    -57.328453
PG16 -23777.250413    594.603803  12007.389045   -505.001036
PG17  13161.781722  18776.773865 -12925.012398    618.738089
PG18  -1257.666949 -17763.867139  19660.446610    156.630325
PG19  15053.513076  11536.761003 -18943.633238    163.871319
PG20  25740.947721  -2023.372863   5680.668349    513.703561
PG21 -17530.746747  19402.746567   1932.979198    161.244881
PG22 -15566.714442  -8622.356114 -19357.482912    267.259325
PG23 -13439.528868 -15046.041763  17319.664691    -25.011683
PG24  13371.061878 -22208.543284  -4958.476169    231.636476
PG25  -5547.779208 -16242.520259 -20624.442618    330.969116
PG26 -26400.276688  -3985.845780   1218.342895    208.980961
PG27 -14325.314704   3993.024530  21791.761504    209.948430
PG28  24506.686739   9810.483716   1866.329431    348.615416
PG29  -3888.448180 -26129.934175  -2417.763870   -518.813533
PG30  11508.259648  10819.917049  21440.804433   -529.696434
PG31 -19001.907189     94.037628 -18871.303085   -179.681074
PG32 -15454.808391 -16023.359442 -14477.578551   -138.722678
PJ02 -29389.485864  22962.364944  24613.151115     -0.345253
PJ03 -29527.746741  27508.385510  17178.353638     -2.494776
PR01   9690.007116  19558.325579 -13208.642710      9.237668
PR02  18437.994027  16502.989831   6114.674153    519.820626
PR03  15626.646932   3257.498514  19927.311925     57.509499
PR04   4040.761652 -11317.179599  22533.662328    143.904184
PR05  -9643.077856 -19898.807926  12751.103841     93.718695
PR07 -15310.318361  -2746.110188 -20187.270971     35.722894
PR08  -3954.667338  11479.460584 -22368.211792    -65.399890
PR09 -19079.488599  -3875.092971 -16418.803009     57.721305
PR11 -17154.724442  11263.446211  15150.025780     37.685482
PR12   1731.946058  10882.398276  23031.427148     18.670554
PR13  18113.316275   4402.167964  17399.968883    -22.987363
PR14  24965.199106  -5262.115285    520.967925     25.459079
PR15  16595.127733 -11285.303843 -15728.000533     95.764412
PR17  12619.077548  -8478.558660 -20469.939737    530.395538
PR18  11038.037676 -21712.554272  -7659.685396    118.540872
PR19   4961.030670 -23677.465429   8081.531213   -190.829586
PR20  -6425.945822 -10892.016602  22161.296137    -71.570881
PR21 -12745.519370   9987.322168  19710.796399   -305.268711
PR22 -10883.591286  21965.119221   6847.453063   -186.306829
PR24   7468.392514  10176.562603 -22158.141583     96.145853
EOF
